ECHOSTAR 11             
1 33207U 08035A   24340.85452243 -.00000038  00000+0  00000+0 0  9997
2 33207   0.0172 345.8512 0002313 266.5877  20.3454  1.00271756 45618
SUPERBIRD-C2            
1 33274U 08038A   24340.83341045 -.00000232  00000+0  00000+0 0  9995
2 33274   0.9149  88.5003 0001634 179.9877 250.6196  1.00271650100136
AMC-21                  
1 33275U 08038B   24340.62604019  .00000055  00000+0  00000+0 0  9998
2 33275   1.5011  87.5020 0002724 163.6022 284.2873  1.00271683 59890
INMARSAT 4-F3           
1 33278U 08039A   24340.65161082 -.00000122  00000+0  00000+0 0  9999
2 33278   3.8362  28.7414 0003091 231.9023 310.8661  1.00270792 40946
NIMIQ 4                 
1 33373U 08044A   24341.43174689 -.00000203  00000+0  00000+0 0  9995
2 33373   0.0063   8.8539 0001699 259.0899 241.2136  1.00272316 59241
GALAXY 19 (G-19)        
1 33376U 08045A   24341.10882641 -.00000121  00000+0  00000+0 0  9996
2 33376   0.0173  50.3607 0002630 198.1266 129.0968  1.00272473 59241
ASTRA 1M                
1 33436U 08057A   24341.23035399  .00000138  00000+0  00000+0 0  9997
2 33436   0.0293  59.4385 0003434 142.1764 336.0123  1.00269719 58880
EUTELSAT HOTBIRD 13C    
1 33459U 08065A   24340.87380990 -.00000082  00000+0  00000+0 0  9999
2 33459   1.5073  85.6261 0006414 174.3648 117.2506  1.00270985 41748
EXPRESS-AM44            
1 33595U 09007A   24340.87415741 -.00000070  00000+0  00000+0 0  9997
2 33595   2.0206  85.2506 0004520 171.2937 122.3310  1.00271071 46689
NSS-9                   
1 33749U 09008A   24340.69819959  .00000091  00000+0  00000+0 0  9990
2 33749   0.0164 337.8864 0002138 272.0800 259.4589  1.00270749 57960
TELSTAR 11N             
1 34111U 09009A   24340.72589997 -.00000231  00000+0  00000+0 0  9992
2 34111   0.0169   5.0560 0002304 232.8007  60.9596  1.00270378 40642
WGS F2 (USA 204)        
1 34713U 09017A   24341.45946181  .00000086  00000+0  00000+0 0  9999
2 34713   0.0175 357.6495 0000407 160.3933 140.6121  1.00270567 57340
SES-7 (PROTOSTAR 2)     
1 34941U 09027A   24340.89355039 -.00000327  00000+0  00000+0 0  9995
2 34941   0.0578  73.7725 0002354 166.3477 265.0009  1.00269921 57039
MEASAT-3A               
1 35362U 09032A   24340.83653815 -.00000092  00000+0  00000+0 0  9995
2 35362   0.0164 346.3853 0002499 269.0559 280.8167  1.00271130  2430
GOES 14                 
1 35491U 09033A   24341.06918802 -.00000048  00000+0  00000+0 0  9996
2 35491   0.2320  91.6240 0002942 120.9348 139.2164  1.00272804 56569
FM-5                    
1 35493U 09034A   24341.35946227 -.00000183  00000+0  00000+0 0  9993
2 35493   0.0139 303.5973 0001261 214.6825 320.6334  1.00272169 56388
TERRESTAR-1             
1 35496U 09035A   24341.12618784 -.00000040  00000+0  00000+0 0  9998
2 35496   4.7377  48.2040 0002906 213.2773 108.3710  1.00272113 56566
ASIASAT 5               
1 35696U 09042A   24340.85396660 -.00000289  00000+0  00000+0 0  9998
2 35696   0.0101  83.7676 0001606 183.5791 215.7560  1.00271106 56114
JCSAT-12 (JCSAT-RA)     
1 35755U 09044A   24340.83106466 -.00000309  00000+0  00000+0 0  9990
2 35755   0.0656  94.2919 0000331  30.4857  21.5736  1.00270233 56016
OPTUS D3                
1 35756U 09044B   24341.51500720 -.00000129  00000+0  00000+0 0  9998
2 35756   0.4525  85.5954 0003900 193.6211 137.9878  1.00271874 56043
NIMIQ 5                 
1 35873U 09050A   24340.86190726 -.00000238  00000+0  00000+0 0  9994
2 35873   0.0380  85.3110 0003148 176.8444  50.5876  1.00269424 55747
AMAZONAS 2              
1 35942U 09054A   24341.43591716 -.00000265  00000+0  00000+0 0  9993
2 35942   0.3664  92.4331 0004116 162.6584 276.7668  1.00273229 55581
COMSATBW-1              
1 35943U 09054B   24341.10324521  .00000043  00000+0  00000+0 0  9999
2 35943   0.0360  38.0080 0003302 215.1266 282.4837  1.00267856 55666
NSS-12                  
1 36032U 09058A   24340.88174664  .00000090  00000+0  00000+0 0  9990
2 36032   0.0474  65.7171 0003696 186.4774 197.4150  1.00271478 55321
THOR 6                  
1 36033U 09058B   24340.94085194  .00000009  00000+0  00000+0 0  9997
2 36033   0.0367 112.6118 0001603 137.1030 163.3908  1.00270871 55408
INTELSAT 14 (IS-14)     
1 36097U 09064A   24341.07132741 -.00000255  00000+0  00000+0 0  9994
2 36097   0.0142 313.8627 0002472 307.6984 154.4972  1.00272321 55107
EUTELSAT 36B            
1 36101U 09065A   24341.39354814  .00000130  00000+0  00000+0 0  9994
2 36101   0.0645 349.3045 0005132 281.2696 357.2912  1.00272943 55211
INTELSAT 15 (IS-15)     
1 36106U 09067A   24340.89910500 -.00000167  00000+0  00000+0 0  9996
2 36106   0.0174 358.5642 0002092 254.1458 231.3313  1.00270519 35633
WGS F3 (USA 211)        
1 36108U 09068A   24340.84053465  .00000071  00000+0  00000+0 0  9995
2 36108   0.1901  89.7149 0000456 128.6781 339.1478  1.00273991 41009
DIRECTV 12              
1 36131U 09075A   24340.64781029 -.00000084  00000+0  00000+0 0  9996
2 36131   0.0118  89.0894 0000171 202.8056 273.5529  1.00270150 40953
BEIDOU-2 G1             
1 36287U 10001A   24340.90413122 -.00000262  00000+0  00000+0 0  9992
2 36287   2.9968  59.8366 0004272 259.6187 221.6238  1.00275839 54561
RADUGA-1M 2             
1 36358U 10002A   24341.10750870 -.00000166  00000+0  00000+0 0  9992
2 36358   2.1633  86.1243 0004174 177.1666 295.8325  1.00272319 54419
SDO                     
1 36395U 10005A   24341.31214914 -.00000057  00000+0  00000+0 0  9992
2 36395  33.4821  94.9119 0002046 186.5089 164.8056  1.00270914 54431
INTELSAT 16 (IS-16)     
1 36397U 10006A   24341.36146052 -.00000227  00000+0  00000+0 0  9996
2 36397   0.0114  22.5396 0001838 224.2586 242.7838  1.00272354 54122
EWS-G2 (GOES 15)        
1 36411U 10008A   24341.46024372  .00000055  00000+0  00000+0 0  9994
2 36411   0.1526 272.1745 0006370 337.3020  53.4483  1.00268785 54039
ECHOSTAR 14             
1 36499U 10010A   24341.41854928  .00000018  00000+0  00000+0 0  9995
2 36499   0.0171 308.0643 0002171 304.7327 214.6919  1.00271131 53942
SES-1                   
1 36516U 10016A   24340.21306514 -.00000094  00000+0  00000+0 0  9996
2 36516   0.0203 316.7150 0002488 302.4053 151.1076  1.00271312 53422
ASTRA 3B                
1 36581U 10021A   24341.32549536  .00000155  00000+0  00000+0 0  9997
2 36581   0.0087  69.7308 0002375 178.1306 328.3866  1.00271325 53056
COMSATBW-2              
1 36582U 10021B   24341.09325392  .00000106  00000+0  00000+0 0  9990
2 36582   0.0538  91.8219 0001275 161.7674 228.5186  1.00271494 53399
BEIDOU-2 G3             
1 36590U 10024A   24340.89214168 -.00000117  00000+0  00000+0 0  9990
2 36590   3.1992  62.0583 0005008 314.7869  99.1592  1.00270368 53172
BADR-5                  
1 36592U 10025A   24340.95294187  .00000163  00000+0  00000+0 0  9999
2 36592   0.0530 130.6502 0003654  83.0254 230.6382  1.00269698 53308
COMS 1                  
1 36744U 10032A   24340.83028274 -.00000326  00000+0  00000+0 0  9997
2 36744   3.3856  82.6681 0000845 192.9196 226.6092  1.00269767 45493
ARABSAT-5A              
1 36745U 10032B   24340.88232418  .00000172  00000+0  00000+0 0  9998
2 36745   0.0552  36.2833 0002470 199.5968 187.4347  1.00272728 53038
ECHOSTAR 15             
1 36792U 10034A   24340.93556578 -.00000263  00000+0  00000+0 0  9996
2 36792   0.0107  26.2963 0002440 189.5724 134.5336  1.00271169 52808
BEIDOU-2 IGSO-1         
1 36828U 10036A   24341.46901865 -.00000050  00000+0  00000+0 0  9994
2 36828  54.2599 168.0040 0043003 205.5311 338.2598  1.00280662 52638
NILESAT 201             
1 36830U 10037A   24341.18452388 -.00000040  00000+0  00000+0 0  9997
2 36830   0.0313 192.7179 0004814  47.1073 255.0807  1.00270350 52691
RASCOM-QAF 1R           
1 36831U 10037B   24341.09125567  .00000037  00000+0  00000+0 0  9999
2 36831   0.0145  79.6367 0006849 177.0418 214.4655  1.00272065 52698
AEHF-1 (USA 214)        
1 36868U 10039A   24340.95372380  .00000166  00000+0  00000+0 0  9995
2 36868   6.8200  75.1476 0003653 169.3175 204.1093  1.00275010 52842
XM-5                    
1 37185U 10053A   24341.21715973 -.00000005  00000+0  00000+0 0  9996
2 37185   0.0173 357.6617 0000513 149.8324 251.0036  1.00269847 51855
BSAT-3B                 
1 37207U 10056B   24340.89355039 -.00000332  00000+0  00000+0 0  9993
2 37207   0.0494 311.9353 0003837 332.5553 222.2299  1.00271391 46518
BEIDOU-2 G4             
1 37210U 10057A   24340.83653815 -.00000093  00000+0  00000+0 0  9999
2 37210   2.2616  70.1753 0009445 182.5806 283.5509  1.00271856 51689
SKYTERRA 1              
1 37218U 10061A   24341.35642146 -.00000101  00000+0  00000+0 0  9995
2 37218   3.9570  49.6591 0004877 187.0335 225.9453  1.00270964 51638
HYLAS 1                 
1 37237U 10065A   24341.46059124  .00000118  00000+0  00000+0 0  9997
2 37237   4.2180  79.8309 0005660 186.0006  39.1344  0.99505919 51415
INTELSAT 17 (IS-17)     
1 37238U 10065B   24340.83017802  .00000017  00000+0  00000+0 0  9993
2 37238   0.0146 300.6770 0002571 320.2486 179.0556  1.00271984 47634
BEIDOU-2 IGSO-2         
1 37256U 10068A   24334.73967046 -.00000205  00000+0  00000+0 0  9992
2 37256  48.5771 278.7994 0037686 218.6719 302.5714  1.00250110 51139
EUTELSAT KA-SAT 9A      
1 37258U 10069A   24341.09247201  .00000080  00000+0  00000+0 0  9996
2 37258   0.0650 296.3307 0001379 339.4676 201.8078  1.00272423 51223
HISPASAT 30W-5          
1 37264U 10070A   24341.01323696 -.00000197  00000+0  00000+0 0  9990
2 37264   0.0602 110.8236 0003205 122.3131 176.9498  1.00271485 51071
KOREASAT 6              
1 37265U 10070B   24341.00813174 -.00000344  00000+0  00000+0 0  9999
2 37265   0.0319  83.0376 0002456 274.4282 196.7694  1.00278984 51086
BEIDOU-2 IGSO-3         
1 37384U 11013A   24340.61201407 -.00000178  00000+0  00000+0 0  9990
2 37384  61.6024  45.4652 0031484 181.8843 175.0091  1.00265583 50058
